ORBCOMM FM20            
1 25416U 98046D   24297.91205990  .00002507  00000+0  90153-3 0  9998
2 25416  44.9932 219.3826 0000896 344.3378  15.7442 14.36090083370284
ORBCOMM FM16            
1 25417U 98046E   24297.88078219  .00003525  00000+0  12157-2 0  9995
2 25417  44.9926 213.8766 0002837 189.7172 170.3622 14.37389059370238
ORBCOMM FM15            
1 25418U 98046F   24297.87165517  .00003120  00000+0  10884-2 0  9999
2 25418  44.9959 218.3990 0002441 195.8043 164.2729 14.37066894370239
ORBCOMM FM14            
1 25419U 98046G   24298.15012312  .00003646  00000+0  12574-2 0  9997
2 25419  44.9947 215.9144 0001279 178.7593 181.3258 14.37328829370459
ORBCOMM FM13            
1 25420U 98046H   24297.52442109  .00002678  00000+0  95385-3 0  9996
2 25420  44.9965 224.7956 0003337 168.8401 191.2521 14.36387501369198
ORBCOMM FM21            
1 25475U 98053A   24298.11471342  .00002592  00000+0  92809-3 0  9994
2 25475  45.0084 306.6220 0001439 280.5335  79.5351 14.36216328363624
ORBCOMM FM22            
1 25476U 98053B   24298.16100991  .00003321  00000+0  11585-2 0  9991
2 25476  45.0077 302.9063 0000247 125.1955 234.8916 14.36934596363660
ORBCOMM FM23            
1 25477U 98053C   24298.13719773  .00003191  00000+0  11297-2 0  9998
2 25477  45.0085 308.8793 0000493 267.5489  92.5303 14.36281847363754
